[
    {
        "Altitude(m)": 617719.7893459403,
        "Argument of Periapsis(deg)": 0.0,
        "Eccentricity": 0.0,
        "Inclination(deg)": 60.0,
        "Latitude(deg)": -41.102689925720746,
        "Longitude(deg)": -49.90531728459781,
        "Mean Anomaly(deg)": -130.90909999999997,
        "RAAN(deg)": 200.0,
        "Satellite Name": "Test1 894",
        "Satellite Number": 894,
        "Semi-Major Axis(m)": 6980739.136638005,
        "Time(s)": 0
    },
    {
        "Altitude(m)": 617911.3251548518,
        "Argument of Periapsis(deg)": 0.00010418945913296404,
        "Eccentricity": 0.0,
        "Inclination(deg)": 60.0,
        "Latitude(deg)": -41.56588153197817,
        "Longitude(deg)": -49.400909764704856,
        "Mean Anomaly(deg)": -130.28899385453812,
        "RAAN(deg)": 199.99957995086027,
        "Satellite Name": "Test1 894",
        "Satellite Number": 894,
        "Semi-Major Axis(m)": 6980739.136638005,
        "Time(s)": 10
    }
]